<?xml version="1.0" encoding="UTF-8"?>
<ndm xmlns:xsi="http://www.w3.org/2001/XMLSchema-instance" xsi:noNamespaceSchemaLocation="https://sanaregistry.org/r/ndmxml_unqualified/ndmxml-2.0.0-master-2.0.xsd">
<omm id="CCSDS_OMM_VERS" version="2.0">
<header><CREATION_DATE/><ORIGINATOR/></header><body><segment><metadata><OBJECT_NAME>ORBCOMM FM33</OBJECT_NAME><OBJECT_ID>1999-065D</OBJECT_ID><CENTER_NAME>EARTH</CENTER_NAME><REF_FRAME>TEME</REF_FRAME><TIME_SYSTEM>UTC</TIME_SYSTEM><MEAN_ELEMENT_THEORY>SGP4</MEAN_ELEMENT_THEORY></metadata><data><meanElements><EPOCH>2024-07-04T11:53:42.813024</EPOCH><MEAN_MOTION>14.37898392</MEAN_MOTION><ECCENTRICITY>.0006235</ECCENTRICITY><INCLINATION>45.0276</INCLINATION><RA_OF_ASC_NODE>209.4942</RA_OF_ASC_NODE><ARG_OF_PERICENTER>115.0686</ARG_OF_PERICENTER><MEAN_ANOMALY>245.0810</MEAN_ANOMALY></meanElements><tleParameters><EPHEMERIS_TYPE>0</EPHEMERIS_TYPE><CLASSIFICATION_TYPE>U</CLASSIFICATION_TYPE><NORAD_CAT_ID>25983</NORAD_CAT_ID><ELEMENT_SET_NO>999</ELEMENT_SET_NO><REV_AT_EPOCH>28605</REV_AT_EPOCH><BSTAR>.43255E-3</BSTAR><MEAN_MOTION_DOT>.1175E-4</MEAN_MOTION_DOT><MEAN_MOTION_DDOT>0</MEAN_MOTION_DDOT></tleParameters></data></segment></body></omm>
<omm id="CCSDS_OMM_VERS" version="2.0">
<header><CREATION_DATE/><ORIGINATOR/></header><body><segment><metadata><OBJECT_NAME>ORBCOMM FM36</OBJECT_NAME><OBJECT_ID>1999-065E</OBJECT_ID><CENTER_NAME>EARTH</CENTER_NAME><REF_FRAME>TEME</REF_FRAME><TIME_SYSTEM>UTC</TIME_SYSTEM><MEAN_ELEMENT_THEORY>SGP4</MEAN_ELEMENT_THEORY></metadata><data><meanElements><EPOCH>2024-07-03T23:44:50.088768</EPOCH><MEAN_MOTION>14.35823866</MEAN_MOTION><ECCENTRICITY>.0003086</ECCENTRICITY><INCLINATION>45.0402</INCLINATION><RA_OF_ASC_NODE>298.3203</RA_OF_ASC_NODE><ARG_OF_PERICENTER>312.0269</ARG_OF_PERICENTER><MEAN_ANOMALY>48.0316</MEAN_ANOMALY></meanElements><tleParameters><EPHEMERIS_TYPE>0</EPHEMERIS_TYPE><CLASSIFICATION_TYPE>U</CLASSIFICATION_TYPE><NORAD_CAT_ID>25984</NORAD_CAT_ID><ELEMENT_SET_NO>999</ELEMENT_SET_NO><REV_AT_EPOCH>28492</REV_AT_EPOCH><BSTAR>.64925E-3</BSTAR><MEAN_MOTION_DOT>.1755E-4</MEAN_MOTION_DOT><MEAN_MOTION_DDOT>0</MEAN_MOTION_DDOT></tleParameters></data></segment></body></omm>
<omm id="CCSDS_OMM_VERS" version="2.0">
<header><CREATION_DATE/><ORIGINATOR/></header><body><segment><metadata><OBJECT_NAME>ORBCOMM FM35</OBJECT_NAME><OBJECT_ID>1999-065F</OBJECT_ID><CENTER_NAME>EARTH</CENTER_NAME><REF_FRAME>TEME</REF_FRAME><TIME_SYSTEM>UTC</TIME_SYSTEM><MEAN_ELEMENT_THEORY>SGP4</MEAN_ELEMENT_THEORY></metadata><data><meanElements><EPOCH>2024-07-03T18:29:11.244192</EPOCH><MEAN_MOTION>14.35335932</MEAN_MOTION><ECCENTRICITY>.0002364</ECCENTRICITY><INCLINATION>45.0409</INCLINATION><RA_OF_ASC_NODE>302.1930</RA_OF_ASC_NODE><ARG_OF_PERICENTER>125.1790</ARG_OF_PERICENTER><MEAN_ANOMALY>234.9280</MEAN_ANOMALY></meanElements><tleParameters><EPHEMERIS_TYPE>0</EPHEMERIS_TYPE><CLASSIFICATION_TYPE>U</CLASSIFICATION_TYPE><NORAD_CAT_ID>25985</NORAD_CAT_ID><ELEMENT_SET_NO>999</ELEMENT_SET_NO><REV_AT_EPOCH>28469</REV_AT_EPOCH><BSTAR>.5226E-3</BSTAR><MEAN_MOTION_DOT>.137E-4</MEAN_MOTION_DOT><MEAN_MOTION_DDOT>0</MEAN_MOTION_DDOT></tleParameters></data></segment></body></omm>
<omm id="CCSDS_OMM_VERS" version="2.0">
<header><CREATION_DATE/><ORIGINATOR/></header><body><segment><metadata><OBJECT_NAME>ORBCOMM FM34</OBJECT_NAME><OBJECT_ID>1999-065G</OBJECT_ID><CENTER_NAME>EARTH</CENTER_NAME><REF_FRAME>TEME</REF_FRAME><TIME_SYSTEM>UTC</TIME_SYSTEM><MEAN_ELEMENT_THEORY>SGP4</MEAN_ELEMENT_THEORY></metadata><data><meanElements><EPOCH>2024-07-04T13:50:57.408576</EPOCH><MEAN_MOTION>14.35314430</MEAN_MOTION><ECCENTRICITY>.0001815</ECCENTRICITY><INCLINATION>45.0404</INCLINATION><RA_OF_ASC_NODE>298.9322</RA_OF_ASC_NODE><ARG_OF_PERICENTER>31.6112</ARG_OF_PERICENTER><MEAN_ANOMALY>328.4844</MEAN_ANOMALY></meanElements><tleParameters><EPHEMERIS_TYPE>0</EPHEMERIS_TYPE><CLASSIFICATION_TYPE>U</CLASSIFICATION_TYPE><NORAD_CAT_ID>25986</NORAD_CAT_ID><ELEMENT_SET_NO>999</ELEMENT_SET_NO><REV_AT_EPOCH>28496</REV_AT_EPOCH><BSTAR>.48359E-3</BSTAR><MEAN_MOTION_DOT>.1257E-4</MEAN_MOTION_DOT><MEAN_MOTION_DDOT>0</MEAN_MOTION_DDOT></tleParameters></data></segment></body></omm>
<omm id="CCSDS_OMM_VERS" version="2.0">
<header><CREATION_DATE/><ORIGINATOR/></header><body><segment><metadata><OBJECT_NAME>ORBCOMM FM38</OBJECT_NAME><OBJECT_ID>2008-031A</OBJECT_ID><CENTER_NAME>EARTH</CENTER_NAME><REF_FRAME>TEME</REF_FRAME><TIME_SYSTEM>UTC</TIME_SYSTEM><MEAN_ELEMENT_THEORY>SGP4</MEAN_ELEMENT_THEORY></metadata><data><meanElements><EPOCH>2024-07-04T11:18:20.668320</EPOCH><MEAN_MOTION>14.77894615</MEAN_MOTION><ECCENTRICITY>.0005953</ECCENTRICITY><INCLINATION>48.4391</INCLINATION><RA_OF_ASC_NODE>168.3338</RA_OF_ASC_NODE><ARG_OF_PERICENTER>346.7027</ARG_OF_PERICENTER><MEAN_ANOMALY>13.3730</MEAN_ANOMALY></meanElements><tleParameters><EPHEMERIS_TYPE>0</EPHEMERIS_TYPE><CLASSIFICATION_TYPE>U</CLASSIFICATION_TYPE><NORAD_CAT_ID>33060</NORAD_CAT_ID><ELEMENT_SET_NO>999</ELEMENT_SET_NO><REV_AT_EPOCH>86324</REV_AT_EPOCH><BSTAR>.35339E-3</BSTAR><MEAN_MOTION_DOT>.2362E-4</MEAN_MOTION_DOT><MEAN_MOTION_DDOT>0</MEAN_MOTION_DDOT></tleParameters></data></segment></body></omm>
<omm id="CCSDS_OMM_VERS" version="2.0">
<header><CREATION_DATE/><ORIGINATOR/></header><body><segment><metadata><OBJECT_NAME>ORBCOMM FM41</OBJECT_NAME><OBJECT_ID>2008-031B</OBJECT_ID><CENTER_NAME>EARTH</CENTER_NAME><REF_FRAME>TEME</REF_FRAME><TIME_SYSTEM>UTC</TIME_SYSTEM><MEAN_ELEMENT_THEORY>SGP4</MEAN_ELEMENT_THEORY></metadata><data><meanElements><EPOCH>2024-07-03T17:56:28.967136</EPOCH><MEAN_MOTION>14.77613864</MEAN_MOTION><ECCENTRICITY>.0005263</ECCENTRICITY><INCLINATION>48.4423</INCLINATION><RA_OF_ASC_NODE>178.5130</RA_OF_ASC_NODE><ARG_OF_PERICENTER>330.2225</ARG_OF_PERICENTER><MEAN_ANOMALY>200.6055</MEAN_ANOMALY></meanElements><tleParameters><EPHEMERIS_TYPE>0</EPHEMERIS_TYPE><CLASSIFICATION_TYPE>U</CLASSIFICATION_TYPE><NORAD_CAT_ID>33061</NORAD_CAT_ID><ELEMENT_SET_NO>999</ELEMENT_SET_NO><REV_AT_EPOCH>86264</REV_AT_EPOCH><BSTAR>.35537E-3</BSTAR><MEAN_MOTION_DOT>.236E-4</MEAN_MOTION_DOT><MEAN_MOTION_DDOT>0</MEAN_MOTION_DDOT></tleParameters></data></segment></body></omm>
<omm id="CCSDS_OMM_VERS" version="2.0">
<header><CREATION_DATE/><ORIGINATOR/></header><body><segment><metadata><OBJECT_NAME>ORBCOMM FM29</OBJECT_NAME><OBJECT_ID>2008-031C</OBJECT_ID><CENTER_NAME>EARTH</CENTER_NAME><REF_FRAME>TEME</REF_FRAME><TIME_SYSTEM>UTC</TIME_SYSTEM><MEAN_ELEMENT_THEORY>SGP4</MEAN_ELEMENT_THEORY></metadata><data><meanElements><EPOCH>2024-07-04T04:45:23.604768</EPOCH><MEAN_MOTION>14.77562437</MEAN_MOTION><ECCENTRICITY>.0007118</ECCENTRICITY><INCLINATION>48.4375</INCLINATION><RA_OF_ASC_NODE>184.4140</RA_OF_ASC_NODE><ARG_OF_PERICENTER>330.3903</ARG_OF_PERICENTER><MEAN_ANOMALY>129.5104</MEAN_ANOMALY></meanElements><tleParameters><EPHEMERIS_TYPE>0</EPHEMERIS_TYPE><CLASSIFICATION_TYPE>U</CLASSIFICATION_TYPE><NORAD_CAT_ID>33062</NORAD_CAT_ID><ELEMENT_SET_NO>999</ELEMENT_SET_NO><REV_AT_EPOCH>86301</REV_AT_EPOCH><BSTAR>.35321E-3</BSTAR><MEAN_MOTION_DOT>.2342E-4</MEAN_MOTION_DOT><MEAN_MOTION_DDOT>0</MEAN_MOTION_DDOT></tleParameters></data></segment></body></omm>
<omm id="CCSDS_OMM_VERS" version="2.0">
<header><CREATION_DATE/><ORIGINATOR/></header><body><segment><metadata><OBJECT_NAME>ORBCOMM FM39</OBJECT_NAME><OBJECT_ID>2008-031D</OBJECT_ID><CENTER_NAME>EARTH</CENTER_NAME><REF_FRAME>TEME</REF_FRAME><TIME_SYSTEM>UTC</TIME_SYSTEM><MEAN_ELEMENT_THEORY>SGP4</MEAN_ELEMENT_THEORY></metadata><data><meanElements><EPOCH>2024-07-03T12:08:44.275200</EPOCH><MEAN_MOTION>14.76516385</MEAN_MOTION><ECCENTRICITY>.0008165</ECCENTRICITY><INCLINATION>48.4389</INCLINATION><RA_OF_ASC_NODE>208.6283</RA_OF_ASC_NODE><ARG_OF_PERICENTER>303.7077</ARG_OF_PERICENTER><MEAN_ANOMALY>56.3058</MEAN_ANOMALY></meanElements><tleParameters><EPHEMERIS_TYPE>0</EPHEMERIS_TYPE><CLASSIFICATION_TYPE>U</CLASSIFICATION_TYPE><NORAD_CAT_ID>33063</NORAD_CAT_ID><ELEMENT_SET_NO>999</ELEMENT_SET_NO><REV_AT_EPOCH>86221</REV_AT_EPOCH><BSTAR>.29613E-3</BSTAR><MEAN_MOTION_DOT>.1879E-4</MEAN_MOTION_DOT><MEAN_MOTION_DDOT>0</MEAN_MOTION_DDOT></tleParameters></data></segment></body></omm>

</ndm>
