ORBCOMM FM33            
1 25983U 99065D   24186.49563441  .00001175  00000+0  43255-3 0  9998
2 25983  45.0276 209.4942 0006235 115.0686 245.0810 14.37898392286051
ORBCOMM FM36            
1 25984U 99065E   24185.98946862  .00001755  00000+0  64925-3 0  9995
2 25984  45.0402 298.3203 0003086 312.0269  48.0316 14.35823866284925
ORBCOMM FM35            
1 25985U 99065F   24185.77026903  .00001370  00000+0  52260-3 0  9990
2 25985  45.0409 302.1930 0002364 125.1790 234.9280 14.35335932284696
ORBCOMM FM34            
1 25986U 99065G   24186.57705334  .00001257  00000+0  48359-3 0  9990
2 25986  45.0404 298.9322 0001815  31.6112 328.4844 14.35314430284963
ORBCOMM FM38            
1 33060U 08031A   24186.47107255  .00002362  00000+0  35339-3 0  9994
2 33060  48.4391 168.3338 0005953 346.7027  13.3730 14.77894615863248
ORBCOMM FM41            
1 33061U 08031B   24185.74755749  .00002360  00000+0  35537-3 0  9999
2 33061  48.4423 178.5130 0005263 330.2225 200.6055 14.77613864862649
ORBCOMM FM29            
1 33062U 08031C   24186.19818987  .00002342  00000+0  35321-3 0  9995
2 33062  48.4375 184.4140 0007118 330.3903 129.5104 14.77562437863013
ORBCOMM FM39            
1 33063U 08031D   24185.50606800  .00001879  00000+0  29613-3 0  9990
2 33063  48.4389 208.6283 0008165 303.7077  56.3058 14.76516385862211
